BEIDOU-3 M3             
1 43208U 18018B   26094.70477203 -.00000039  00000+0  00000+0 0  9997
2 43208  56.5887  65.5733 0010159 324.5695  35.3353  1.86231209 55371
BEIDOU-3 M9             
1 43245U 18029A   26094.92221981 -.00000058  00000+0  00000+0 0  9995
2 43245  54.2603 302.5104 0001020  55.5089 304.5186  1.86228453 54533
BEIDOU-3 M10            
1 43246U 18029B   26094.85695269 -.00000059  00000+0  00000+0 0  9993
2 43246  54.2578 302.5395 0005130  31.3928 328.6559  1.86229111 54518
IRNSS-1I                
1 43286U 18035A   26094.99765462  .00000091  00000+0  00000+0 0  9997
2 43286  29.0064  75.3228 0018338 190.1122 342.2508  1.00279265 29346
COSMOS 2527 [GLONASS-M] 
1 43508U 18053A   26094.41055528 -.00000001  00000+0  00000+0 0  9998
2 43508  65.5379  76.3665 0009215 247.9985 111.8895  2.13102083 60707
BEIDOU-2 IGSO-7         
1 43539U 18057A   26086.63100478 -.00000168  00000+0  00000+0 0  9990
2 43539  55.1838 163.7722 0101772 237.2605 124.1194  1.00275701 28316
GSAT0221 (GALILEO 25)   
1 43564U 18060A   26090.04924982 -.00000099  00000+0  00000+0 0  9999
2 43564  57.1934 343.8925 0004721 315.0021  45.0002  1.70475638 47837
GSAT0222 (GALILEO 26)   
1 43565U 18060B   26093.20172289 -.00000096  00000+0  00000+0 0  9993
2 43565  57.1971 343.8104 0002935 285.5245  74.4895  1.70475247 47935
GSAT0219 (GALILEO 23)   
1 43566U 18060C   26094.59589508 -.00000094  00000+0  00000+0 0  9991
2 43566  57.1954 343.7746 0004031 327.6445  32.3780  1.70475577 47939
GSAT0220 (GALILEO 24)   
1 43567U 18060D   26092.47048715 -.00000097  00000+0  00000+0 0  9990
2 43567  57.1953 343.8319 0004601 318.6748  41.3360  1.70475758 47884
BEIDOU-3 M5             
1 43581U 18062A   26092.39635532  .00000008  00000+0  00000+0 0  9999
2 43581  54.0850 184.8810 0003510 295.8623  64.1328  1.86224644 52221
BEIDOU-3 M6             
1 43582U 18062B   26093.33335537  .00000014  00000+0  00000+0 0  9994
2 43582  54.0846 184.8383 0005216  31.2890 328.7793  1.86227743 52245
BEIDOU-3 M12            
1 43602U 18067A   26089.51302426 -.00000026  00000+0  00000+0 0  9992
2 43602  54.1801 183.7084 0008139  37.0616 323.0089  1.86227710 51657
BEIDOU-3 M11            
1 43603U 18067B   26093.40660892  .00000015  00000+0  00000+0 0  9997
2 43603  54.1769 183.5400 0004642  26.6069 333.4575  1.86227234 51759
BEIDOU-3 M13            
1 43622U 18072A   26094.97289470 -.00000039  00000+0  00000+0 0  9993
2 43622  56.5630  65.0735 0009111 313.8269  46.0701  1.86231084 51292
BEIDOU-3 M14            
1 43623U 18072B   26094.83834227 -.00000040  00000+0  00000+0 0  9997
2 43623  56.5647  65.0721 0006906 335.0307  24.9080  1.86231146 51287
BEIDOU-3 M16            
1 43647U 18078A   26093.38397449 -.00000063  00000+0  00000+0 0  9993
2 43647  54.1581 302.6080 0008390  35.6309 324.4467  1.86232420 50761
